start=new Date('2023-03-30T00:00:00.000Z').valueOf();
sats=[{"NORAD_CAT_ID":"53242","MEAN_MOTION_DOT":"0.00006559","TLE_LINE2":"2 53242  53.2178 351.7953 0001338 100.0707 260.0436 15.08866380 38790","GP_ID":"229105588","BSTAR":"0.00042952000000","EPOCH":"2023-03-29T04:04:47.008128","TIME_SYSTEM":"UTC","CLASSIFICATION_TYPE":"U","PERIOD":"95.436","TLE_LINE1":"1 53242U 22086A   23088.16998852  .00006559  00000-0  42952-3 0  9993","SITE":"AFETR","INCLINATION":"53.2178","PERIAPSIS":"538.739","MEAN_MOTION":"15.08866380","EPHEMERIS_TYPE":"0","MEAN_MOTION_DDOT":"0.0000000000000","OBJECT_TYPE":"PAYLOAD","ELEMENT_SET_NO":"999","APOAPSIS":"540.590","LAUNCH_DATE":"2022-07-24","SEMIMAJOR_AXIS":"6917.800","ARG_OF_PERICENTER":"100.0707","REF_FRAME":"TEME","REV_AT_EPOCH":"3879","OBJECT_NAME":"STARLINK-4056","COUNTRY_CODE":"US","DECAY_DATE":null,"CENTER_NAME":"EARTH","MEAN_ANOMALY":"260.0436","FILE":"3874492","RCS_SIZE":"LARGE","OBJECT_ID":"2022-086A","RA_OF_ASC_NODE":"351.7953","MEAN_ELEMENT_THEORY":"SGP4","ECCENTRICITY":"0.00013380"},{"PERIOD":"95.437","TLE_LINE1":"1 53243U 22086B   23087.97265216  .00003943  00000-0  26556-3 0  9999","SITE":"AFETR","INCLINATION":"53.2178","PERIAPSIS":"538.348","MEAN_MOTION":"15.08855976","EPHEMERIS_TYPE":"0","NORAD_CAT_ID":"53243","BSTAR":"0.00026556000000","TLE_LINE2":"2 53243  53.2178 357.6899 0001950 127.3879 232.7291 15.08855976 38713","GP_ID":"229105837","MEAN_MOTION_DOT":"0.00003943","EPOCH":"2023-03-28T23:20:37.146624","TIME_SYSTEM":"UTC","CLASSIFICATION_TYPE":"U","COUNTRY_CODE":"US","DECAY_DATE":null,"CENTER_NAME":"EARTH","MEAN_ANOMALY":"232.7291","FILE":"3874492","RCS_SIZE":"LARGE","OBJECT_ID":"2022-086B","RA_OF_ASC_NODE":"357.6899","MEAN_ELEMENT_THEORY":"SGP4","ECCENTRICITY":"0.00019500","MEAN_MOTION_DDOT":"0.0000000000000","OBJECT_TYPE":"PAYLOAD","ELEMENT_SET_NO":"999","LAUNCH_DATE":"2022-07-24","APOAPSIS":"541.046","SEMIMAJOR_AXIS":"6917.832","REF_FRAME":"TEME","ARG_OF_PERICENTER":"127.3879","REV_AT_EPOCH":"3871","OBJECT_NAME":"STARLINK-4047"},{"COUNTRY_CODE":"US","DECAY_DATE":null,"CENTER_NAME":"EARTH","MEAN_ANOMALY":"264.2180","FILE":"3874492","RCS_SIZE":"LARGE","OBJECT_ID":"2022-086C","RA_OF_ASC_NODE":"357.1418","MEAN_ELEMENT_THEORY":"SGP4","ECCENTRICITY":"0.00015110","MEAN_MOTION_DDOT":"0.0000000000000","OBJECT_TYPE":"PAYLOAD","ELEMENT_SET_NO":"999","LAUNCH_DATE":"2022-07-24","APOAPSIS":"540.714","SEMIMAJOR_AXIS":"6917.804","REF_FRAME":"TEME","ARG_OF_PERICENTER":"95.8985","REV_AT_EPOCH":"3871","OBJECT_NAME":"STARLINK-4125","PERIOD":"95.436","TLE_LINE1":"1 53244U 22086C   23088.09409207  .00009991  00000-0  64450-3 0  9998","SITE":"AFETR","INCLINATION":"53.2179","PERIAPSIS":"538.623","MEAN_MOTION":"15.08865084","EPHEMERIS_TYPE":"0","NORAD_CAT_ID":"53244","MEAN_MOTION_DOT":"0.00009991","TLE_LINE2":"2 53244  53.2179 357.1418 0001511  95.8985 264.2180 15.08865084 38715","GP_ID":"229106589","BSTAR":"0.00064450000000","EPOCH":"2023-03-29T02:15:29.554848","TIME_SYSTEM":"UTC","CLASSIFICATION_TYPE":"U"},{"INCLINATION":"53.2170","PERIAPSIS":"538.998","MEAN_MOTION":"15.08865378","EPHEMERIS_TYPE":"0","SITE":"AFETR","TLE_LINE1":"1 53245U 22086D   23088.03520937  .00005848  00000-0  38496-3 0  9995","PERIOD":"95.436","CLASSIFICATION_TYPE":"U","EPOCH":"2023-03-29T00:50:42.089568","TIME_SYSTEM":"UTC","NORAD_CAT_ID":"53245","BSTAR":"0.00038496000000","TLE_LINE2":"2 53245  53.2170 357.4112 0000968  82.3734 277.7368 15.08865378 38723","GP_ID":"229107339","MEAN_MOTION_DOT":"0.00005848","ECCENTRICITY":"0.00009680","FILE":"3874492","RCS_SIZE":"LARGE","RA_OF_ASC_NODE":"357.4112","OBJECT_ID":"2022-086D","MEAN_ELEMENT_THEORY":"SGP4","CENTER_NAME":"EARTH","MEAN_ANOMALY":"277.7368","COUNTRY_CODE":"US","DECAY_DATE":null,"OBJECT_NAME":"STARLINK-4124","REV_AT_EPOCH":"3872","SEMIMAJOR_AXIS":"6917.803","ARG_OF_PERICENTER":"82.3734","REF_FRAME":"TEME","OBJECT_TYPE":"PAYLOAD","ELEMENT_SET_NO":"999","LAUNCH_DATE":"2022-07-24","APOAPSIS":"540.337","MEAN_MOTION_DDOT":"0.0000000000000"},{"ECCENTRICITY":"0.00014100","RA_OF_ASC_NODE":"356.8329","OBJECT_ID":"2022-086E","MEAN_ELEMENT_THEORY":"SGP4","FILE":"3874492","RCS_SIZE":"LARGE","MEAN_ANOMALY":"283.3825","CENTER_NAME":"EARTH","DECAY_DATE":null,"COUNTRY_CODE":"US","OBJECT_NAME":"STARLINK-4131","REV_AT_EPOCH":"3761","ARG_OF_PERICENTER":"76.7325","REF_FRAME":"TEME","SEMIMAJOR_AXIS":"6917.757","APOAPSIS":"540.597","LAUNCH_DATE":"2022-07-24","OBJECT_TYPE":"PAYLOAD","ELEMENT_SET_NO":"999","MEAN_MOTION_DDOT":"0.0000000000000","MEAN_MOTION":"15.08880418","EPHEMERIS_TYPE":"0","INCLINATION":"53.2180","PERIAPSIS":"538.646","SITE":"AFETR","TLE_LINE1":"1 53246U 22086E   23088.16401301  .00028656  00000-0  18093-2 0  9995","PERIOD":"95.435","CLASSIFICATION_TYPE":"U","EPOCH":"2023-03-29T03:56:10.724064","TIME_SYSTEM":"UTC","TLE_LINE2":"2 53246  53.2180 356.8329 0001410  76.7325 283.3825 15.08880418 37614","GP_ID":"229106087","BSTAR":"0.00180930000000","MEAN_MOTION_DOT":"0.00028656","NORAD_CAT_ID":"53246"},{"OBJECT_TYPE":"PAYLOAD","ELEMENT_SET_NO":"999","LAUNCH_DATE":"2022-07-24","APOAPSIS":"540.415","MEAN_MOTION_DDOT":"0.0000000000000","REV_AT_EPOCH":"3879","OBJECT_NAME":"STARLINK-4061","SEMIMAJOR_AXIS":"6917.843","ARG_OF_PERICENTER":"85.1241","REF_FRAME":"TEME","CENTER_NAME":"EARTH","MEAN_ANOMALY":"274.9868","COUNTRY_CODE":"US","DECAY_DATE":null,"ECCENTRICITY":"0.00010230","FILE":"3874492","RCS_SIZE":"LARGE","MEAN_ELEMENT_THEORY":"SGP4","RA_OF_ASC_NODE":"351.8166","OBJECT_ID":"2022-086F","EPOCH":"2023-03-29T04:00:52.724160","TIME_SYSTEM":"UTC","NORAD_CAT_ID":"53247","TLE_LINE2":"2 53247  53.2168 351.8166 0001023  85.1241 274.9868 15.08852355 38798","GP_ID":"229106337","BSTAR":"0.00204670000000","MEAN_MOTION_DOT":"0.00032446","CLASSIFICATION_TYPE":"U","TLE_LINE1":"1 53247U 22086F   23088.16727690  .00032446  00000-0  20467-2 0  9998","PERIOD":"95.437","INCLINATION":"53.2168","PERIAPSIS":"539.000","MEAN_MOTION":"15.08852355","EPHEMERIS_TYPE":"0","SITE":"AFETR"},{"MEAN_ELEMENT_THEORY":"SGP4","RA_OF_ASC_NODE":"351.8322","OBJECT_ID":"2022-086G","FILE":"3874492","RCS_SIZE":"LARGE","ECCENTRICITY":"0.00011840","DECAY_DATE":null,"COUNTRY_CODE":"US","MEAN_ANOMALY":"263.3977","CENTER_NAME":"EARTH","REF_FRAME":"TEME","ARG_OF_PERICENTER":"96.7150","SEMIMAJOR_AXIS":"6917.797","OBJECT_NAME":"STARLINK-4135","REV_AT_EPOCH":"3879","MEAN_MOTION_DDOT":"0.0000000000000","LAUNCH_DATE":"2022-07-24","APOAPSIS":"540.481","OBJECT_TYPE":"PAYLOAD","ELEMENT_SET_NO":"999","SITE":"AFETR","MEAN_MOTION":"15.08867395","EPHEMERIS_TYPE":"0","INCLINATION":"53.2176","PERIAPSIS":"538.843","PERIOD":"95.436","TLE_LINE1":"1 53248U 22086G   23088.16358559  .00019539  00000-0  12414-2 0  9994","CLASSIFICATION_TYPE":"U","MEAN_MOTION_DOT":"0.00019539","TLE_LINE2":"2 53248  53.2176 351.8322 0001184  96.7150 263.3977 15.08867395 38790","GP_ID":"229107089","BSTAR":"0.00124140000000","NORAD_CAT_ID":"53248","EPOCH":"2023-03-29T03:55:33.794976","TIME_SYSTEM":"UTC"},{"SEMIMAJOR_AXIS":"6917.822","REF_FRAME":"TEME","ARG_OF_PERICENTER":"87.1502","OBJECT_NAME":"STARLINK-4128","REV_AT_EPOCH":"3854","MEAN_MOTION_DDOT":"0.0000000000000","OBJECT_TYPE":"PAYLOAD","ELEMENT_SET_NO":"999","APOAPSIS":"540.503","LAUNCH_DATE":"2022-07-24","FILE":"3874492","RCS_SIZE":"LARGE","MEAN_ELEMENT_THEORY":"SGP4","RA_OF_ASC_NODE":"347.3714","OBJECT_ID":"2022-086H","ECCENTRICITY":"0.00011800","COUNTRY_CODE":"US","DECAY_DATE":null,"CENTER_NAME":"EARTH","MEAN_ANOMALY":"272.9625","CLASSIFICATION_TYPE":"U","NORAD_CAT_ID":"53249","TLE_LINE2":"2 53249  53.2158 347.3714 0001180  87.1502 272.9625 15.08859211 38544","BSTAR":"0.00190970000000","GP_ID":"229106840","MEAN_MOTION_DOT":"0.00030252","EPOCH":"2023-03-29T01:02:38.343840","TIME_SYSTEM":"UTC","SITE":"AFETR","INCLINATION":"53.2158","PERIAPSIS":"538.870","MEAN_MOTION":"15.08859211","EPHEMERIS_TYPE":"0","PERIOD":"95.436","TLE_LINE1":"1 53249U 22086H   23088.04349935  .00030252  00000-0  19097-2 0  9999"},{"NORAD_CAT_ID":"53250","BSTAR":"0.00085411000000","TLE_LINE2":"2 53250  53.2178 343.7867 0001238  66.6897 293.4226 15.08842139 38669","GP_ID":"229140361","MEAN_MOTION_DOT":"0.00013332","EPOCH":"2023-03-29T20:12:34.272576","TIME_SYSTEM":"UTC","CLASSIFICATION_TYPE":"U","PERIOD":"95.437","TLE_LINE1":"1 53250U 22086J   23088.84206334  .00013332  00000-0  85411-3 0  9998","SITE":"AFETR","INCLINATION":"53.2178","PERIAPSIS":"538.882","MEAN_MOTION":"15.08842139","EPHEMERIS_TYPE":"0","MEAN_MOTION_DDOT":"0.0000000000000","OBJECT_TYPE":"PAYLOAD","ELEMENT_SET_NO":"999","APOAPSIS":"540.595","LAUNCH_DATE":"2022-07-24","SEMIMAJOR_AXIS":"6917.874","REF_FRAME":"TEME","ARG_OF_PERICENTER":"66.6897","OBJECT_NAME":"STARLINK-4059","REV_AT_EPOCH":"3866","COUNTRY_CODE":"US","DECAY_DATE":null,"CENTER_NAME":"EARTH","MEAN_ANOMALY":"293.4226","FILE":"3874790","RCS_SIZE":"LARGE","MEAN_ELEMENT_THEORY":"SGP4","RA_OF_ASC_NODE":"343.7867","OBJECT_ID":"2022-086J","ECCENTRICITY":"0.00012380"},{"MEAN_MOTION_DDOT":"0.0000000000000","APOAPSIS":"540.515","LAUNCH_DATE":"2022-07-24","OBJECT_TYPE":"PAYLOAD","ELEMENT_SET_NO":"999","REF_FRAME":"TEME","ARG_OF_PERICENTER":"73.7201","SEMIMAJOR_AXIS":"6917.803","OBJECT_NAME":"STARLINK-4129","REV_AT_EPOCH":"3853","DECAY_DATE":null,"COUNTRY_CODE":"US","MEAN_ANOMALY":"286.3926","CENTER_NAME":"EARTH","MEAN_ELEMENT_THEORY":"SGP4","RA_OF_ASC_NODE":"347.1071","OBJECT_ID":"2022-086K","FILE":"3874492","RCS_SIZE":"LARGE","ECCENTRICITY":"0.00012240","GP_ID":"229105838","TLE_LINE2":"2 53251  53.2169 347.1071 0001224  73.7201 286.3926 15.08865233 38532","BSTAR":"0.00139020000000","MEAN_MOTION_DOT":"0.00021922","NORAD_CAT_ID":"53251","EPOCH":"2023-03-29T02:27:25.366752","TIME_SYSTEM":"UTC","CLASSIFICATION_TYPE":"U","PERIOD":"95.436","TLE_LINE1":"1 53251U 22086K   23088.10237693  .00021922  00000-0  13902-2 0  9999","SITE":"AFETR","MEAN_MOTION":"15.08865233","EPHEMERIS_TYPE":"0","INCLINATION":"53.2169","PERIAPSIS":"538.822"}];
